NORAD_CAT_ID,OBJECT_NAME,OBJECT_TYPE,EPOCH,MEAN_MOTION,ECCENTRICITY,INCLINATION,RA_OF_ASC_NODE,ARG_OF_PERICENTER,MEAN_ANOMALY,BSTAR,MEAN_MOTION_DOT,MEAN_MOTION_DDOT,TLE_LINE0,TLE_LINE1,TLE_LINE2,SEMIMAJOR_AXIS,PERIOD,APOGEE,PERIGEE,DECAYED
53557.0,STARLINK-4502,PAYLOAD,2024-06-05 11:09:53,15.08853162,0.0001491,53.22,67.1822,86.1198,273.9965,8.0941e-05,1.001e-05,0.0,0 STARLINK-4502,1 53557U 22101AG  24157.46520473  .00001001  00000-0  80941-4 0  9999,2 53557  53.2200  67.1822 0001491  86.1198 273.9965 15.08853162 99359,6917.84,95.437,540.737,538.674,0.0
53557.0,STARLINK-4502,PAYLOAD,2024-06-06 01:28:23,15.08830005,0.0001615,53.2196,64.5046,89.8338,270.2839,-4.3472e-05,-9.8e-06,0.0,0 STARLINK-4502,1 53557U 22101AG  24158.06138405 -.00000980  00000-0 -43472-4 0  9991,2 53557  53.2196  64.5046 0001615  89.8338 270.2839 15.08830005 99447,6917.911,95.438,540.893,538.659,0.0
53557.0,STARLINK-4502,PAYLOAD,2024-06-06 11:00:39,15.08865076,0.0001234,53.2191,62.7203,79.7338,280.3793,0.00012107,1.641e-05,0.0,0 STARLINK-4502,1 53557U 22101AG  24158.45879431  .00001641  00000-0  12107-3 0  9998,2 53557  53.2191  62.7203 0001234  79.7338 280.3793 15.08865076 99506,6917.804,95.436,540.522,538.815,0.0
53557.0,STARLINK-4502,PAYLOAD,2024-06-06 17:22:12,15.08855539,0.0001544,53.2169,61.533,82.2803,277.8364,0.00020909,3.043e-05,0.0,0 STARLINK-4502,1 53557U 22101AG  24158.72375686  .00003043  00000-0  20909-3 0  9998,2 53557  53.2169  61.5330 0001544  82.2803 277.8364 15.08855539 99541,6917.833,95.437,540.766,538.63,0.0
53557.0,STARLINK-4502,PAYLOAD,2024-06-07 10:51:29,15.0883232,0.0002398,53.2172,58.2612,85.694,274.4326,-0.00010907,-2.024e-05,0.0,0 STARLINK-4502,1 53557U 22101AG  24159.45242273 -.00002024  00000-0 -10907-3 0  9991,2 53557  53.2172  58.2612 0002398  85.6940 274.4326 15.08832320 99654,6917.904,95.438,541.428,538.11,0.0
53557.0,STARLINK-4502,PAYLOAD,2024-06-07 21:59:11,15.08828526,0.0001421,53.2181,56.1786,91.979,268.1365,4.6475e-05,4.52e-06,0.0,0 STARLINK-4502,1 53557U 22101AG  24159.91609960  .00000452  00000-0  46475-4 0  9993,2 53557  53.2181  56.1786 0001421  91.9790 268.1365 15.08828526100370,6917.915,95.438,540.763,538.797,0.0
53557.0,STARLINK-4502,PAYLOAD,2024-06-08 02:45:19,15.0885532,0.000154,53.2189,55.2865,89.5128,270.604,-3.1211e-05,-7.85e-06,0.0,0 STARLINK-4502,1 53557U 22101AG  24160.11480714 -.00000785  00000-0 -31211-4 0  9994,2 53557  53.2189  55.2865 0001540  89.5128 270.6040 15.08855320 99755,6917.834,95.437,540.764,538.633,0.0
53557.0,STARLINK-4502,PAYLOAD,2024-06-08 17:03:48,15.08837346,0.0001361,53.2183,52.6084,98.6251,261.4895,2.0124e-05,3.2e-07,0.0,0 STARLINK-4502,1 53557U 22101AG  24160.71097330  .00000032  00000-0  20124-4 0  9992,2 53557  53.2183  52.6084 0001361  98.6251 261.4895 15.08837346 99846,6917.889,95.438,540.695,538.812,0.0
53557.0,STARLINK-4502,PAYLOAD,2024-06-08 21:49:57,15.08832472,0.00013,53.2184,51.7157,97.5345,262.5795,-2.1921e-05,-6.37e-06,0.0,0 STARLINK-4502,1 53557U 22101AG  24160.90969822 -.00000637  00000-0 -21921-4 0  9996,2 53557  53.2184  51.7157 0001300  97.5345 262.5795 15.08832472100527,6917.903,95.438,540.668,538.869,0.0
53557.0,STARLINK-4502,PAYLOAD,2024-06-09 02:36:07,15.08830065,0.0001404,53.2187,50.825,95.4029,264.7123,-3.1452e-05,-7.88e-06,0.0,0 STARLINK-4502,1 53557U 22101AG  24161.10842124 -.00000788  00000-0 -31452-4 0  9991,2 53557  53.2187  50.8250 0001404  95.4029 264.7123 15.08830065 99909,6917.911,95.438,540.747,538.804,0.0
53557.0,STARLINK-4502,PAYLOAD,2024-06-09 23:16:08,15.08830227,0.0001368,53.2184,46.9604,94.9832,265.1316,6.8445e-05,8.01e-06,0.0,0 STARLINK-4502,1 53557U 22101AG  24161.96954460  .00000801  00000-0  68445-4 0  9998,2 53557  53.2184  46.9604 0001368  94.9832 265.1316 15.08830227100687,6917.91,95.438,540.722,538.829,0.0
53557.0,STARLINK-4502,PAYLOAD,2024-06-10 08:48:26,15.0884664,0.0001506,53.2186,45.177,95.216,264.9004,7.7334e-05,9.43e-06,0.0,0 STARLINK-4502,1 53557U 22101AG  24162.36697496  .00000943  00000-0  77334-4 0  9990,2 53557  53.2186  45.1770 0001506  95.2160 264.9004 15.08846640100098,6917.86,95.437,540.767,538.683,0.0
53557.0,STARLINK-4502,PAYLOAD,2024-06-10 19:56:10,15.08824473,0.0001169,53.2179,43.0952,83.1961,276.9164,3.673e-05,2.97e-06,0.0,0 STARLINK-4502,1 53557U 22101AG  24162.83067191  .00000297  00000-0  36730-4 0  9992,2 53557  53.2179  43.0952 0001169  83.1961 276.9164 15.08824473100167,6917.928,95.439,540.602,538.984,0.0
53557.0,STARLINK-4502,PAYLOAD,2024-06-10 23:06:55,15.08845096,0.0001635,53.2188,42.5051,105.0931,255.0242,-8.8938e-05,-1.703e-05,0.0,0 STARLINK-4502,1 53557U 22101AG  24162.96314327 -.00001703  00000-0 -88938-4 0  9994,2 53557  53.2188  42.5051 0001635 105.0931 255.0242 15.08845096100833,6917.865,95.437,540.861,538.599,0.0
53557.0,STARLINK-4502,PAYLOAD,2024-06-11 02:17:41,15.08839727,0.0001242,53.2181,41.9062,93.859,266.2544,0.00016362,2.317e-05,0.0,0 STARLINK-4502,1 53557U 22101AG  24163.09562025  .00002317  00000-0  16362-3 0  9990,2 53557  53.2181  41.9062 0001242  93.8590 266.2544 15.08839727100204,6917.881,95.438,540.605,538.887,0.0
53557.0,STARLINK-4502,PAYLOAD,2024-06-11 08:39:13,15.08847791,0.0001386,53.2191,40.7177,97.138,262.977,0.00018832,2.711e-05,0.0,0 STARLINK-4502,1 53557U 22101AG  24163.36057378  .00002711  00000-0  18832-3 0  9992,2 53557  53.2191  40.7177 0001386  97.1380 262.9770 15.08847791100891,6917.857,95.437,540.68,538.763,0.0
53557.0,STARLINK-4502,PAYLOAD,2024-06-11 22:57:42,15.0884129,0.0001408,53.2192,38.0439,93.9777,266.1377,1.9466e-05,2.2e-07,0.0,0 STARLINK-4502,1 53557U 22101AG  24163.95674467  .00000022  00000-0  19466-4 0  9999,2 53557  53.2192  38.0439 0001408  93.9777 266.1377 15.08841290100989,6917.876,95.437,540.715,538.767,0.0
53557.0,STARLINK-4502,PAYLOAD,2024-06-12 08:30:00,15.08853039,0.0001373,53.2195,36.2611,95.6378,264.4771,0.00018138,2.601e-05,0.0,0 STARLINK-4502,1 53557U 22101AG  24164.35417085  .00002601  00000-0  18138-3 0  9994,2 53557  53.2195  36.2611 0001373  95.6378 264.4771 15.08853039100399,6917.841,95.437,540.655,538.756,0.0
53557.0,STARLINK-4502,PAYLOAD,2024-06-12 21:13:07,15.08828913,0.0001315,53.2178,33.8776,85.921,274.1933,-0.00011189,-2.068e-05,0.0,0 STARLINK-4502,1 53557U 22101AG  24164.88411620 -.00002068  00000-0 -11189-3 0  9999,2 53557  53.2178  33.8776 0001315  85.9210 274.1933 15.08828913100478,6917.914,95.438,540.689,538.87,0.0
53557.0,STARLINK-4502,PAYLOAD,2024-06-13 08:20:48,15.08844765,0.0001441,53.2188,31.797,86.4959,273.6198,6.7859e-06,-1.8e-06,0.0,0 STARLINK-4502,1 53557U 22101AG  24165.34778426 -.00000180  00000-0  67859-5 0  9990,2 53557  53.2188  31.7970 0001441  86.4959 273.6198 15.08844765100546,6917.866,95.437,540.728,538.734,0.0
53557.0,STARLINK-4502,PAYLOAD,2024-06-13 22:39:16,15.08842841,0.0001302,53.2181,29.1206,82.5472,277.5668,3.0311e-05,1.95e-06,0.0,0 STARLINK-4502,1 53557U 22101AG  24165.94394502  .00000195  00000-0  30311-4 0  9992,2 53557  53.2181  29.1206 0001302  82.5472 277.5668 15.08842841101285,6917.872,95.437,540.637,538.836,0.0
53557.0,STARLINK-4502,PAYLOAD,2024-06-14 14:33:08,15.08837944,0.0002083,53.218,26.1468,84.7013,275.4216,0.00025454,3.765e-05,0.0,0 STARLINK-4502,1 53557U 22101AG  24166.60634350  .00003765  00000-0  25454-3 0  9991,2 53557  53.2180  26.1468 0002083  84.7013 275.4216 15.08837944101388,6917.887,95.438,541.193,538.311,0.0
53557.0,STARLINK-4502,PAYLOAD,2024-06-14 20:54:40,15.08837811,0.0001461,53.2189,24.957,95.9534,264.1625,0.00012092,1.637e-05,0.0,0 STARLINK-4502,1 53557U 22101AG  24166.87130623  .00001637  00000-0  12092-3 0  9994,2 53557  53.2189  24.9570 0001461  95.9534 264.1625 15.08837811101425,6917.887,95.438,540.763,538.741,0.0
53557.0,STARLINK-4502,PAYLOAD,2024-06-15 08:02:22,15.08841777,0.0001508,53.2188,22.8732,101.3289,258.7873,0.00013129,1.802e-05,0.0,0 STARLINK-4502,1 53557U 22101AG  24167.33498295  .00001802  00000-0  13129-3 0  9994,2 53557  53.2188  22.8732 0001508 101.3289 258.7873 15.08841777101499,6917.875,95.437,540.783,538.697,0.0
53557.0,STARLINK-4502,PAYLOAD,2024-06-15 20:45:27,15.08843157,0.0001485,53.2189,20.4972,90.6045,269.5117,-9.3485e-06,-4.37e-06,0.0,0 STARLINK-4502,1 53557U 22101AG  24167.86490613 -.00000437  00000-0 -93485-5 0  9998,2 53557  53.2189  20.4972 0001485  90.6045 269.5117 15.08843157101578,6917.871,95.437,540.763,538.708,0.0
53557.0,STARLINK-4502,PAYLOAD,2024-06-16 20:36:16,15.08814713,0.0001455,53.2189,16.0347,107.2879,252.8272,-0.00017976,-3.146e-05,0.0,0 STARLINK-4502,1 53557U 22101AG  24168.85852711 -.00003146  00000-0 -17976-3 0  9998,2 53557  53.2189  16.0347 0001455 107.2879 252.8272 15.08814713101722,6917.958,95.439,540.829,538.816,0.0
53557.0,STARLINK-4502,PAYLOAD,2024-06-17 20:27:03,15.08828096,0.000129,53.2181,11.576,100.535,259.5788,-1.9776e-05,-6.02e-06,0.0,0 STARLINK-4502,1 53557U 22101AG  24169.85212411 -.00000602  00000-0 -19776-4 0  9991,2 53557  53.2181  11.5760 0001290 100.5350 259.5788 15.08828096101220,6917.917,95.438,540.674,538.889,0.0
53557.0,STARLINK-4502,PAYLOAD,2024-06-18 05:59:20,15.08851581,0.0001346,53.2189,9.7906,100.5221,259.5923,0.00016135,2.282e-05,0.0,0 STARLINK-4502,1 53557U 22101AG  24170.24954448  .00002282  00000-0  16135-3 0  9998,2 53557  53.2189   9.7906 0001346 100.5221 259.5923 15.08851581101280,6917.845,95.437,540.641,538.779,0.0
53557.0,STARLINK-4502,PAYLOAD,2024-06-18 20:17:49,15.0883324,0.0001433,53.2184,7.1178,117.0604,243.0534,0.00035064,5.296e-05,0.0,0 STARLINK-4502,1 53557U 22101AG  24170.84571235  .00005296  00000-0  35064-3 0  9993,2 53557  53.2184   7.1178 0001433 117.0604 243.0534 15.08833240101371,6917.901,95.438,540.757,538.775,0.0
53557.0,STARLINK-4502,PAYLOAD,2024-06-18 21:53:12,15.08835759,0.0001372,53.2188,6.819,111.6851,248.4287,0.00035544,5.373e-05,0.0,0 STARLINK-4502,1 53557U 22101AG  24170.91195107  .00005373  00000-0  35544-3 0  9990,2 53557  53.2188   6.8190 0001372 111.6851 248.4287 15.08835759102036,6917.893,95.438,540.707,538.809,0.0
